[{"OBJECT_NAME":"STARLINK-33620","OBJECT_ID":"2025-035T","EPOCH":"2026-03-09T04:42:47.702016","MEAN_MOTION":15.27589414,"ECCENTRICITY":0.00021958,"INCLINATION":43.0016,"RA_OF_ASC_NODE":149.9253,"ARG_OF_PERICENTER":276.6389,"MEAN_ANOMALY":83.4213,"EPHEMERIS_TYPE":0,"CLASSIFICATION_TYPE":"U","NORAD_CAT_ID":63069,"ELEMENT_SET_NO":999,"REV_AT_EPOCH":5964,"BSTAR":0.0012783446,"MEAN_MOTION_DOT":0.00035094,"MEAN_MOTION_DDOT":0},{"OBJECT_NAME":"SIMSAT 2","OBJECT_ID":"2000-026B","EPOCH":"2026-03-09T20:25:01.673184","MEAN_MOTION":15.29036787,"ECCENTRICITY":0.00037035,"INCLINATION":86.3514,"RA_OF_ASC_NODE":176.4271,"ARG_OF_PERICENTER":287.9875,"MEAN_ANOMALY":72.0969,"EPHEMERIS_TYPE":0,"CLASSIFICATION_TYPE":"U","NORAD_CAT_ID":26366,"ELEMENT_SET_NO":999,"REV_AT_EPOCH":42803,"BSTAR":0.00013465771,"MEAN_MOTION_DOT":3.833e-5,"MEAN_MOTION_DDOT":0}]
